DELTA 2 R/B(1)          
1 20453U 90008B   26039.26938882  .00072087  00000+0  95375-3 0  9992
2 20453  35.6064   7.3242 0094648 344.1602  15.6181 15.51894752921550
COSMOS 2058             
1 20465U 90010A   26039.84454090  .00004168  00000+0  24721-3 0  9998
2 20465  82.4641  75.8443 0012015  77.5826 282.6748 15.11052736937882
SL-14 R/B               
1 20466U 90010B   26039.75209052  .00000507  00000+0  58475-4 0  9992
2 20466  82.5028 294.5715 0020810  38.7660 321.5043 14.83543405924199
SL-14 R/B               
1 20511U 90018B   26039.94451578  .00000437  00000+0  51845-4 0  9990
2 20511  82.5182 249.9636 0016239 181.6658 178.4505 14.82114391918329
HST                     
1 20580U 90037B   26039.77140969  .00007285  00000+0  24335-3 0  9998
2 20580  28.4663 237.2056 0001773 143.0565 217.0153 15.29015568768881
SL-16 R/B               
1 20625U 90046B   26039.36009882  .00000185  00000+0  12031-3 0  9993
2 20625  71.0002 359.5080 0014682 340.4587  19.5971 14.15005980844246
COSMOS 2084             
1 20663U 90055A   26039.43123141  .00003010  00000+0  22148-3 0  9998
2 20663  62.7899  75.3541 0021733 183.9347 176.1586 15.05460857931914
SL-6 R/B(2)             
1 20666U 90055D   26039.30780618  .00003144  00000+0  24335-3 0  9993
2 20666  62.7850 353.7555 0020360 338.6124  21.4122 15.03438946933775
SL-8 R/B                
1 20775U 90078B   26039.73816666  .00015693  00000+0  46235-3 0  9994
2 20775  82.9021 277.3270 0367038 110.9988 253.0906 14.88106002804991
SL-8 R/B                
1 21088U 91006B   26039.94382749  .00000041  00000+0  25707-4 0  9990
2 21088  82.9433 191.4172 0023634 114.7688   0.8196 13.77492104760115
OKEAN-3                 
1 21397U 91039A   26039.95073123  .00003492  00000+0  24629-3 0  9997
2 21397  82.5178   4.6763 0016515  71.2947 289.0070 15.04573598860714
COSMOS 2151             
1 21422U 91042A   26039.93289471  .00002310  00000+0  18342-3 0  9996
2 21422  82.4963 111.4161 0013281 150.9315 209.2652 14.99993956858886
