CCSDS_OMM_VERS = 2.0
CREATION_DATE  = 
ORIGINATOR     = 

OBJECT_NAME    = DELTA 2 R/B(1)
OBJECT_ID      = 1990-008B
CENTER_NAME    = EARTH
REF_FRAME      = TEME
TIME_SYSTEM    = UTC
MEAN_ELEMENT_THEORY = SGP/SGP4

EPOCH          = 2026-02-08T06:27:55.194048
MEAN_MOTION    = 15.51894752
ECCENTRICITY   = .0094648
INCLINATION    = 35.6064
RA_OF_ASC_NODE = 7.3242
ARG_OF_PERICENTER = 344.1602
MEAN_ANOMALY   = 15.6181

EPHEMERIS_TYPE = 0
CLASSIFICATION_TYPE = U
NORAD_CAT_ID   = 20453
ELEMENT_SET_NO = 999
REV_AT_EPOCH   = 92155
BSTAR          = .95375E-3
MEAN_MOTION_DOT = .72087E-3
MEAN_MOTION_DDOT = 0

CCSDS_OMM_VERS = 2.0
CREATION_DATE  = 
ORIGINATOR     = 

OBJECT_NAME    = COSMOS 2058
OBJECT_ID      = 1990-010A
CENTER_NAME    = EARTH
REF_FRAME      = TEME
TIME_SYSTEM    = UTC
MEAN_ELEMENT_THEORY = SGP/SGP4

EPOCH          = 2026-02-08T20:16:08.333760
MEAN_MOTION    = 15.11052736
ECCENTRICITY   = .00120153
INCLINATION    = 82.4641
RA_OF_ASC_NODE = 75.8443
ARG_OF_PERICENTER = 77.5826
MEAN_ANOMALY   = 282.6748

EPHEMERIS_TYPE = 0
CLASSIFICATION_TYPE = U
NORAD_CAT_ID   = 20465
ELEMENT_SET_NO = 999
REV_AT_EPOCH   = 93788
BSTAR          = .24721424E-3
MEAN_MOTION_DOT = .4168E-4
MEAN_MOTION_DDOT = 0

CCSDS_OMM_VERS = 2.0
CREATION_DATE  = 
ORIGINATOR     = 

OBJECT_NAME    = SL-14 R/B
OBJECT_ID      = 1990-010B
CENTER_NAME    = EARTH
REF_FRAME      = TEME
TIME_SYSTEM    = UTC
MEAN_ELEMENT_THEORY = SGP/SGP4

EPOCH          = 2026-02-08T18:03:00.620928
MEAN_MOTION    = 14.83543405
ECCENTRICITY   = .00208102
INCLINATION    = 82.5028
RA_OF_ASC_NODE = 294.5715
ARG_OF_PERICENTER = 38.7660
MEAN_ANOMALY   = 321.5043

EPHEMERIS_TYPE = 0
CLASSIFICATION_TYPE = U
NORAD_CAT_ID   = 20466
ELEMENT_SET_NO = 999
REV_AT_EPOCH   = 92419
BSTAR          = .58474653E-4
MEAN_MOTION_DOT = .507E-5
MEAN_MOTION_DDOT = 0

CCSDS_OMM_VERS = 2.0
CREATION_DATE  = 
ORIGINATOR     = 

OBJECT_NAME    = SL-14 R/B
OBJECT_ID      = 1990-018B
CENTER_NAME    = EARTH
REF_FRAME      = TEME
TIME_SYSTEM    = UTC
MEAN_ELEMENT_THEORY = SGP/SGP4

EPOCH          = 2026-02-08T22:40:06.163392
MEAN_MOTION    = 14.82114391
ECCENTRICITY   = .00162397
INCLINATION    = 82.5182
RA_OF_ASC_NODE = 249.9636
ARG_OF_PERICENTER = 181.6658
MEAN_ANOMALY   = 178.4505

EPHEMERIS_TYPE = 0
CLASSIFICATION_TYPE = U
NORAD_CAT_ID   = 20511
ELEMENT_SET_NO = 999
REV_AT_EPOCH   = 91832
BSTAR          = .51845349E-4
MEAN_MOTION_DOT = .437E-5
MEAN_MOTION_DDOT = 0

CCSDS_OMM_VERS = 2.0
CREATION_DATE  = 
ORIGINATOR     = 

OBJECT_NAME    = HST
OBJECT_ID      = 1990-037B
CENTER_NAME    = EARTH
REF_FRAME      = TEME
TIME_SYSTEM    = UTC
MEAN_ELEMENT_THEORY = SGP/SGP4

EPOCH          = 2026-02-08T18:30:49.797216
MEAN_MOTION    = 15.29015568
ECCENTRICITY   = .00017734
INCLINATION    = 28.4663
RA_OF_ASC_NODE = 237.2056
ARG_OF_PERICENTER = 143.0565
MEAN_ANOMALY   = 217.0153

EPHEMERIS_TYPE = 0
CLASSIFICATION_TYPE = U
NORAD_CAT_ID   = 20580
ELEMENT_SET_NO = 999
REV_AT_EPOCH   = 76888
BSTAR          = .243346E-3
MEAN_MOTION_DOT = .7285E-4
MEAN_MOTION_DDOT = 0

CCSDS_OMM_VERS = 2.0
CREATION_DATE  = 
ORIGINATOR     = 

OBJECT_NAME    = SL-16 R/B
OBJECT_ID      = 1990-046B
CENTER_NAME    = EARTH
REF_FRAME      = TEME
TIME_SYSTEM    = UTC
MEAN_ELEMENT_THEORY = SGP/SGP4

EPOCH          = 2026-02-08T08:38:32.538048
MEAN_MOTION    = 14.15005980
ECCENTRICITY   = .00146824
INCLINATION    = 71.0002
RA_OF_ASC_NODE = 359.5080
ARG_OF_PERICENTER = 340.4587
MEAN_ANOMALY   = 19.5971

EPHEMERIS_TYPE = 0
CLASSIFICATION_TYPE = U
NORAD_CAT_ID   = 20625
ELEMENT_SET_NO = 999
REV_AT_EPOCH   = 84424
BSTAR          = .12031492E-3
MEAN_MOTION_DOT = .185E-5
MEAN_MOTION_DDOT = 0

CCSDS_OMM_VERS = 2.0
CREATION_DATE  = 
ORIGINATOR     = 

OBJECT_NAME    = COSMOS 2084
OBJECT_ID      = 1990-055A
CENTER_NAME    = EARTH
REF_FRAME      = TEME
TIME_SYSTEM    = UTC
MEAN_ELEMENT_THEORY = SGP/SGP4

EPOCH          = 2026-02-08T10:20:58.393824
MEAN_MOTION    = 15.05460857
ECCENTRICITY   = .00217339
INCLINATION    = 62.7899
RA_OF_ASC_NODE = 75.3541
ARG_OF_PERICENTER = 183.9347
MEAN_ANOMALY   = 176.1586

EPHEMERIS_TYPE = 0
CLASSIFICATION_TYPE = U
NORAD_CAT_ID   = 20663
ELEMENT_SET_NO = 999
REV_AT_EPOCH   = 93191
BSTAR          = .22148233E-3
MEAN_MOTION_DOT = .301E-4
MEAN_MOTION_DDOT = 0

CCSDS_OMM_VERS = 2.0
CREATION_DATE  = 
ORIGINATOR     = 

OBJECT_NAME    = SL-6 R/B(2)
OBJECT_ID      = 1990-055D
CENTER_NAME    = EARTH
REF_FRAME      = TEME
TIME_SYSTEM    = UTC
MEAN_ELEMENT_THEORY = SGP/SGP4

EPOCH          = 2026-02-08T07:23:14.453952
MEAN_MOTION    = 15.03438946
ECCENTRICITY   = .002036
INCLINATION    = 62.7850
RA_OF_ASC_NODE = 353.7555
ARG_OF_PERICENTER = 338.6124
MEAN_ANOMALY   = 21.4122

EPHEMERIS_TYPE = 0
CLASSIFICATION_TYPE = U
NORAD_CAT_ID   = 20666
ELEMENT_SET_NO = 999
REV_AT_EPOCH   = 93377
BSTAR          = .24335E-3
MEAN_MOTION_DOT = .3144E-4
MEAN_MOTION_DDOT = 0

CCSDS_OMM_VERS = 2.0
CREATION_DATE  = 
ORIGINATOR     = 

OBJECT_NAME    = SL-8 R/B
OBJECT_ID      = 1990-078B
CENTER_NAME    = EARTH
REF_FRAME      = TEME
TIME_SYSTEM    = UTC
MEAN_ELEMENT_THEORY = SGP/SGP4

EPOCH          = 2026-02-08T17:42:57.599424
MEAN_MOTION    = 14.88106002
ECCENTRICITY   = .03670386
INCLINATION    = 82.9021
RA_OF_ASC_NODE = 277.3270
ARG_OF_PERICENTER = 110.9988
MEAN_ANOMALY   = 253.0906

EPHEMERIS_TYPE = 0
CLASSIFICATION_TYPE = U
NORAD_CAT_ID   = 20775
ELEMENT_SET_NO = 999
REV_AT_EPOCH   = 80499
BSTAR          = .46235385E-3
MEAN_MOTION_DOT = .15693E-3
MEAN_MOTION_DDOT = 0

CCSDS_OMM_VERS = 2.0
CREATION_DATE  = 
ORIGINATOR     = 

OBJECT_NAME    = SL-8 R/B
OBJECT_ID      = 1991-006B
CENTER_NAME    = EARTH
REF_FRAME      = TEME
TIME_SYSTEM    = UTC
MEAN_ELEMENT_THEORY = SGP/SGP4

EPOCH          = 2026-02-08T22:39:06.695136
MEAN_MOTION    = 13.77492104
ECCENTRICITY   = .00236347
INCLINATION    = 82.9433
RA_OF_ASC_NODE = 191.4172
ARG_OF_PERICENTER = 114.7688
MEAN_ANOMALY   = 0.8196

EPHEMERIS_TYPE = 0
CLASSIFICATION_TYPE = U
NORAD_CAT_ID   = 21088
ELEMENT_SET_NO = 999
REV_AT_EPOCH   = 76011
BSTAR          = .25706794E-4
MEAN_MOTION_DOT = .41E-6
MEAN_MOTION_DDOT = 0

CCSDS_OMM_VERS = 2.0
CREATION_DATE  = 
ORIGINATOR     = 

OBJECT_NAME    = OKEAN-3
OBJECT_ID      = 1991-039A
CENTER_NAME    = EARTH
REF_FRAME      = TEME
TIME_SYSTEM    = UTC
MEAN_ELEMENT_THEORY = SGP/SGP4

EPOCH          = 2026-02-08T22:49:03.178272
MEAN_MOTION    = 15.04573598
ECCENTRICITY   = .00165156
INCLINATION    = 82.5178
RA_OF_ASC_NODE = 4.6763
ARG_OF_PERICENTER = 71.2947
MEAN_ANOMALY   = 289.0070

EPHEMERIS_TYPE = 0
CLASSIFICATION_TYPE = U
NORAD_CAT_ID   = 21397
ELEMENT_SET_NO = 999
REV_AT_EPOCH   = 86071
BSTAR          = .2462911E-3
MEAN_MOTION_DOT = .3492E-4
MEAN_MOTION_DDOT = 0

CCSDS_OMM_VERS = 2.0
CREATION_DATE  = 
ORIGINATOR     = 

OBJECT_NAME    = COSMOS 2151
OBJECT_ID      = 1991-042A
CENTER_NAME    = EARTH
REF_FRAME      = TEME
TIME_SYSTEM    = UTC
MEAN_ELEMENT_THEORY = SGP/SGP4

EPOCH          = 2026-02-08T22:23:22.102944
MEAN_MOTION    = 14.99993956
ECCENTRICITY   = .00132817
INCLINATION    = 82.4963
RA_OF_ASC_NODE = 111.4161
ARG_OF_PERICENTER = 150.9315
MEAN_ANOMALY   = 209.2652

EPHEMERIS_TYPE = 0
CLASSIFICATION_TYPE = U
NORAD_CAT_ID   = 21422
ELEMENT_SET_NO = 999
REV_AT_EPOCH   = 85888
BSTAR          = .18341968E-3
MEAN_MOTION_DOT = .231E-4
MEAN_MOTION_DDOT = 0

